start=new Date('2022-11-30T00:00:00.000Z').valueOf();
sats=[{"CLASSIFICATION_TYPE":"U","OBJECT_TYPE":"PAYLOAD","BSTAR":"0.00020290000000","TIME_SYSTEM":"UTC","FILE":"3673849","NORAD_CAT_ID":"48657","DECAY_DATE":null,"ECCENTRICITY":"0.00015970","ELEMENT_SET_NO":"999","CENTER_NAME":"EARTH","PERIOD":"95.592","OBJECT_NAME":"STARLINK-2734","EPHEMERIS_TYPE":"0","MEAN_ANOMALY":"287.5510","SEMIMAJOR_AXIS":"6925.351","RA_OF_ASC_NODE":"90.3481","MEAN_MOTION":"15.06399296","ARG_OF_PERICENTER":"72.5654","PERIAPSIS":"546.110","SITE":"AFETR","REV_AT_EPOCH":"8345","TLE_LINE1":"1 48657U 21044V   22333.76185437  .00002742  00000-0  20290-3 0  9996","TLE_LINE2":"2 48657  53.0552  90.3481 0001597  72.5654 287.5510 15.06399296 83456","GP_ID":"219111142","MEAN_MOTION_DDOT":"0.0000000000000","INCLINATION":"53.0552","LAUNCH_DATE":"2021-05-26","RCS_SIZE":"LARGE","REF_FRAME":"TEME","OBJECT_ID":"2021-044V","EPOCH":"2022-11-29T18:17:04.217568","MEAN_ELEMENT_THEORY":"SGP4","MEAN_MOTION_DOT":"0.00002742","APOAPSIS":"548.322","COUNTRY_CODE":"US"},{"ECCENTRICITY":"0.00014690","DECAY_DATE":null,"NORAD_CAT_ID":"48658","FILE":"3673849","TIME_SYSTEM":"UTC","BSTAR":"0.00007889300000","OBJECT_TYPE":"PAYLOAD","CLASSIFICATION_TYPE":"U","SEMIMAJOR_AXIS":"6925.362","EPHEMERIS_TYPE":"0","MEAN_ANOMALY":"293.1357","OBJECT_NAME":"STARLINK-2647","PERIOD":"95.592","CENTER_NAME":"EARTH","ELEMENT_SET_NO":"999","GP_ID":"219110893","TLE_LINE2":"2 48658  53.0538  90.9616 0001469  66.9787 293.1357 15.06395473 83432","TLE_LINE1":"1 48658U 21044W   22333.62547353  .00000894  00000-0  78893-4 0  9990","REV_AT_EPOCH":"8343","SITE":"AFETR","PERIAPSIS":"546.210","MEAN_MOTION":"15.06395473","ARG_OF_PERICENTER":"66.9787","RA_OF_ASC_NODE":"90.9616","COUNTRY_CODE":"US","APOAPSIS":"548.245","MEAN_MOTION_DOT":"0.00000894","MEAN_ELEMENT_THEORY":"SGP4","EPOCH":"2022-11-29T15:00:40.912992","OBJECT_ID":"2021-044W","REF_FRAME":"TEME","RCS_SIZE":"LARGE","LAUNCH_DATE":"2021-05-26","INCLINATION":"53.0538","MEAN_MOTION_DDOT":"0.0000000000000"},{"ECCENTRICITY":"0.00015330","DECAY_DATE":null,"NORAD_CAT_ID":"48659","FILE":"3673849","TIME_SYSTEM":"UTC","OBJECT_TYPE":"PAYLOAD","BSTAR":"0.00018077000000","CLASSIFICATION_TYPE":"U","SEMIMAJOR_AXIS":"6925.366","EPHEMERIS_TYPE":"0","MEAN_ANOMALY":"305.4250","OBJECT_NAME":"STARLINK-2717","PERIOD":"95.593","CENTER_NAME":"EARTH","ELEMENT_SET_NO":"999","GP_ID":"219109641","TLE_LINE2":"2 48659  53.0563  90.9861 0001533  54.6882 305.4250 15.06394316 83439","TLE_LINE1":"1 48659U 21044X   22333.62178701  .00002412  00000-0  18077-3 0  9993","REV_AT_EPOCH":"8343","SITE":"AFETR","PERIAPSIS":"546.169","MEAN_MOTION":"15.06394316","ARG_OF_PERICENTER":"54.6882","RA_OF_ASC_NODE":"90.9861","COUNTRY_CODE":"US","APOAPSIS":"548.293","MEAN_MOTION_DOT":"0.00002412","MEAN_ELEMENT_THEORY":"SGP4","EPOCH":"2022-11-29T14:55:22.397664","OBJECT_ID":"2021-044X","REF_FRAME":"TEME","RCS_SIZE":"LARGE","LAUNCH_DATE":"2021-05-26","INCLINATION":"53.0563","MEAN_MOTION_DDOT":"0.0000000000000"},{"ELEMENT_SET_NO":"999","CENTER_NAME":"EARTH","PERIOD":"95.592","OBJECT_NAME":"STARLINK-2688","MEAN_ANOMALY":"266.2959","EPHEMERIS_TYPE":"0","SEMIMAJOR_AXIS":"6925.347","CLASSIFICATION_TYPE":"U","BSTAR":"0.00009449900000","OBJECT_TYPE":"PAYLOAD","TIME_SYSTEM":"UTC","FILE":"3673849","NORAD_CAT_ID":"48660","DECAY_DATE":null,"ECCENTRICITY":"0.00012150","INCLINATION":"53.0558","MEAN_MOTION_DDOT":"0.0000000000000","LAUNCH_DATE":"2021-05-26","RCS_SIZE":"LARGE","REF_FRAME":"TEME","OBJECT_ID":"2021-044Y","EPOCH":"2022-11-29T18:01:08.182560","MEAN_MOTION_DOT":"0.00001126","MEAN_ELEMENT_THEORY":"SGP4","APOAPSIS":"548.053","COUNTRY_CODE":"US","RA_OF_ASC_NODE":"90.4042","MEAN_MOTION":"15.06400506","ARG_OF_PERICENTER":"93.8169","PERIAPSIS":"546.371","SITE":"AFETR","REV_AT_EPOCH":"8345","TLE_LINE1":"1 48660U 21044Y   22333.75078915  .00001126  00000-0  94499-4 0  9999","TLE_LINE2":"2 48660  53.0558  90.4042 0001215  93.8169 266.2959 15.06400506 83452","GP_ID":"219110391"},{"TIME_SYSTEM":"UTC","NORAD_CAT_ID":"48661","FILE":"3673849","DECAY_DATE":null,"ECCENTRICITY":"0.00015200","CLASSIFICATION_TYPE":"U","OBJECT_TYPE":"PAYLOAD","BSTAR":"0.00011777000000","MEAN_ANOMALY":"310.8688","EPHEMERIS_TYPE":"0","SEMIMAJOR_AXIS":"6925.402","ELEMENT_SET_NO":"999","CENTER_NAME":"EARTH","PERIOD":"95.593","OBJECT_NAME":"STARLINK-2708","REV_AT_EPOCH":"8356","TLE_LINE1":"1 48661U 21044Z   22333.55268265  .00001472  00000-0  11777-3 0  9998","TLE_LINE2":"2 48661  53.0566  81.2756 0001520  49.2432 310.8688 15.06382460 83564","GP_ID":"219110643","RA_OF_ASC_NODE":"81.2756","MEAN_MOTION":"15.06382460","ARG_OF_PERICENTER":"49.2432","PERIAPSIS":"546.215","SITE":"AFETR","OBJECT_ID":"2021-044Z","EPOCH":"2022-11-29T13:15:51.780960","MEAN_ELEMENT_THEORY":"SGP4","MEAN_MOTION_DOT":"0.00001472","APOAPSIS":"548.320","COUNTRY_CODE":"US","INCLINATION":"53.0566","MEAN_MOTION_DDOT":"0.0000000000000","LAUNCH_DATE":"2021-05-26","RCS_SIZE":"LARGE","REF_FRAME":"TEME"},{"OBJECT_NAME":"STARLINK-2726","PERIOD":"95.592","CENTER_NAME":"EARTH","ELEMENT_SET_NO":"999","SEMIMAJOR_AXIS":"6925.356","EPHEMERIS_TYPE":"0","MEAN_ANOMALY":"282.6715","BSTAR":"0.00012660000000","OBJECT_TYPE":"PAYLOAD","CLASSIFICATION_TYPE":"U","ECCENTRICITY":"0.00014210","DECAY_DATE":null,"NORAD_CAT_ID":"48662","FILE":"3673849","TIME_SYSTEM":"UTC","REF_FRAME":"TEME","RCS_SIZE":"LARGE","LAUNCH_DATE":"2021-05-26","MEAN_MOTION_DDOT":"0.0000000000000","INCLINATION":"53.0544","COUNTRY_CODE":"US","APOAPSIS":"548.205","MEAN_ELEMENT_THEORY":"SGP4","MEAN_MOTION_DOT":"0.00001605","EPOCH":"2022-11-29T13:10:32.784384","OBJECT_ID":"2021-044AA","SITE":"AFETR","PERIAPSIS":"546.237","ARG_OF_PERICENTER":"77.4433","MEAN_MOTION":"15.06397450","RA_OF_ASC_NODE":"81.3115","GP_ID":"219111393","TLE_LINE2":"2 48662  53.0544  81.3115 0001421  77.4433 282.6715 15.06397450 83567","TLE_LINE1":"1 48662U 21044AA  22333.54899056  .00001605  00000-0  12660-3 0  9996","REV_AT_EPOCH":"8356"},{"CENTER_NAME":"EARTH","ELEMENT_SET_NO":"999","OBJECT_NAME":"STARLINK-2667","PERIOD":"95.592","EPHEMERIS_TYPE":"0","MEAN_ANOMALY":"280.6673","SEMIMAJOR_AXIS":"6925.347","CLASSIFICATION_TYPE":"U","OBJECT_TYPE":"PAYLOAD","BSTAR":"0.00016992000000","NORAD_CAT_ID":"48663","FILE":"3673849","TIME_SYSTEM":"UTC","ECCENTRICITY":"0.00013600","DECAY_DATE":null,"INCLINATION":"53.0560","MEAN_MOTION_DDOT":"0.0000000000000","LAUNCH_DATE":"2021-05-26","REF_FRAME":"TEME","RCS_SIZE":"LARGE","EPOCH":"2022-11-29T13:05:13.557120","MEAN_ELEMENT_THEORY":"SGP4","MEAN_MOTION_DOT":"0.00002250","OBJECT_ID":"2021-044AB","COUNTRY_CODE":"US","APOAPSIS":"548.153","MEAN_MOTION":"15.06400640","ARG_OF_PERICENTER":"79.4469","RA_OF_ASC_NODE":"81.3262","SITE":"AFETR","PERIAPSIS":"546.270","REV_AT_EPOCH":"8356","TLE_LINE2":"2 48663  53.0560  81.3262 0001360  79.4469 280.6673 15.06400640 83569","GP_ID":"219110141","TLE_LINE1":"1 48663U 21044AB  22333.54529580  .00002250  00000-0  16992-3 0  9998"},{"SEMIMAJOR_AXIS":"6925.348","EPHEMERIS_TYPE":"0","MEAN_ANOMALY":"301.4041","PERIOD":"95.592","OBJECT_NAME":"STARLINK-2709","ELEMENT_SET_NO":"999","CENTER_NAME":"EARTH","DECAY_DATE":null,"ECCENTRICITY":"0.00015180","TIME_SYSTEM":"UTC","FILE":"3673849","NORAD_CAT_ID":"48664","OBJECT_TYPE":"PAYLOAD","BSTAR":"0.00015386000000","CLASSIFICATION_TYPE":"U","APOAPSIS":"548.264","COUNTRY_CODE":"US","OBJECT_ID":"2021-044AC","MEAN_MOTION_DOT":"0.00002011","MEAN_ELEMENT_THEORY":"SGP4","EPOCH":"2022-11-29T16:11:00.364128","RCS_SIZE":"LARGE","REF_FRAME":"TEME","LAUNCH_DATE":"2021-05-26","INCLINATION":"53.0557","MEAN_MOTION_DDOT":"0.0000000000000","TLE_LINE1":"1 48664U 21044AC  22333.67430977  .00002011  00000-0  15386-3 0  9995","GP_ID":"219109892","TLE_LINE2":"2 48664  53.0557  80.7485 0001518  58.7096 301.4041 15.06400147 83582","REV_AT_EPOCH":"8358","PERIAPSIS":"546.162","SITE":"AFETR","RA_OF_ASC_NODE":"80.7485","MEAN_MOTION":"15.06400147","ARG_OF_PERICENTER":"58.7096"},{"REF_FRAME":"TEME","RCS_SIZE":"LARGE","LAUNCH_DATE":"2021-05-26","MEAN_MOTION_DDOT":"0.0000000000000","INCLINATION":"53.0562","COUNTRY_CODE":"US","APOAPSIS":"548.225","MEAN_ELEMENT_THEORY":"SGP4","MEAN_MOTION_DOT":"0.00002250","EPOCH":"2022-11-29T13:19:47.668512","OBJECT_ID":"2021-044AD","SITE":"AFETR","PERIAPSIS":"546.187","MEAN_MOTION":"15.06402533","ARG_OF_PERICENTER":"65.6037","RA_OF_ASC_NODE":"81.2686","GP_ID":"219111143","TLE_LINE2":"2 48665  53.0562  81.2686 0001471  65.6037 294.5106 15.06402533 83561","TLE_LINE1":"1 48665U 21044AD  22333.55541283  .00002250  00000-0  16991-3 0  9994","REV_AT_EPOCH":"8356","OBJECT_NAME":"STARLINK-2653","PERIOD":"95.592","CENTER_NAME":"EARTH","ELEMENT_SET_NO":"999","SEMIMAJOR_AXIS":"6925.341","MEAN_ANOMALY":"294.5106","EPHEMERIS_TYPE":"0","BSTAR":"0.00016991000000","OBJECT_TYPE":"PAYLOAD","CLASSIFICATION_TYPE":"U","ECCENTRICITY":"0.00014710","DECAY_DATE":null,"FILE":"3673849","NORAD_CAT_ID":"48665","TIME_SYSTEM":"UTC"},{"TLE_LINE1":"1 48666U 21044AE  22333.56747626  .00005831  00000-0  41016-3 0  9999","GP_ID":"219110894","TLE_LINE2":"2 48666  53.0552  81.7043 0002197  82.6112 277.5127 15.06387316 83556","REV_AT_EPOCH":"8355","PERIAPSIS":"545.731","SITE":"AFETR","RA_OF_ASC_NODE":"81.7043","ARG_OF_PERICENTER":"82.6112","MEAN_MOTION":"15.06387316","APOAPSIS":"548.774","COUNTRY_CODE":"US","OBJECT_ID":"2021-044AE","MEAN_MOTION_DOT":"0.00005831","MEAN_ELEMENT_THEORY":"SGP4","EPOCH":"2022-11-29T13:37:09.948864","RCS_SIZE":"LARGE","REF_FRAME":"TEME","LAUNCH_DATE":"2021-05-26","INCLINATION":"53.0552","MEAN_MOTION_DDOT":"0.0000000000000","DECAY_DATE":null,"ECCENTRICITY":"0.00021970","TIME_SYSTEM":"UTC","FILE":"3673849","NORAD_CAT_ID":"48666","BSTAR":"0.00041016000000","OBJECT_TYPE":"PAYLOAD","CLASSIFICATION_TYPE":"U","SEMIMAJOR_AXIS":"6925.387","MEAN_ANOMALY":"277.5127","EPHEMERIS_TYPE":"0","PERIOD":"95.593","OBJECT_NAME":"STARLINK-2666","ELEMENT_SET_NO":"999","CENTER_NAME":"EARTH"}];
